satname,norad_id,inclination_deg,eccentricity,mean_motion_rev_per_day,perigee_km,apogee_km,l1,l2
STARLINK-1246,45235,53.0544,0.0001306,15.06385259,546.3522809265087,548.1611937707048,1 45235U 20012BK  25276.60100846  .00000023  00000+0  20446-4 0  9995,2 45235  53.0544  31.8181 0001306  93.9865 266.1273 15.06385259311189
STARLINK-1247,45236,53.0338,0.0003624,16.1171297,239.7491351771032,244.5475179818086,1 45236U 20012BL  25276.02103959  .01078022  73297-3  10041-2 0  9995,2 45236  53.0338 293.1727 0003624  31.3184 328.8066 16.11712970312486
STARLINK-1270,45237,53.0568,0.0001673,15.06438123,545.936127631493,548.2533101646359,1 45237U 20012BM  25276.60467308  .00010989  00000+0  75473-3 0  9997,2 45237  53.0568 351.7999 0001673 102.7311 257.3865 15.06438123311728
STARLINK-1279,45360,53.0524,0.0001023,15.06382849,546.5556552468552,547.9725923167807,1 45360U 20019A   25276.56321236 -.00008192  00000+0 -53193-3 0  9995,2 45360  53.0524 121.9855 0001023  87.3441 272.7666 15.06382849306453
STARLINK-1301,45361,53.0548,0.0001389,15.06409596,546.2202209068573,548.1440745660993,1 45361U 20019B   25276.61758044 -.00001254  00000+0 -65301-4 0  9990,2 45361  53.0548 131.7427 0001389  80.0540 280.0606 15.06409596306331
STARLINK-1306,45362,53.0496,0.000949,15.59756671,381.939318836824,394.78213151921227,1 45362U 20019C   25276.66670139  .00152966  00000+0  18432-2 0  9990,2 45362  53.0496 130.3905 0009490 133.4367 193.0611 15.59756671  5940
STARLINK-1262,45366,53.0526,7.81e-05,15.06385683,546.7145646793906,547.7963109781804,1 45366U 20019G   25276.05180408  .00018173  00000+0  12362-2 0  9999,2 45366  53.0526 154.2814 0000781  87.7549 272.3529 15.06385683305977
STARLINK-1273,45367,53.0523,0.0001245,15.06450233,546.195418577925,547.919792034646,1 45367U 20019H   25276.07389519  .00026212  00000+0  17697-2 0  9995,2 45367  53.0523 154.1841 0001245  67.2849 292.8271 15.06450233305971
STARLINK-1276,45368,53.053,0.0001355,15.06394717,546.2893626961331,548.1661365432801,1 45368U 20019J   25276.37617371  .00003909  00000+0  28124-3 0  9995,2 45368  53.0530 152.8288 0001355 104.4715 255.6425 15.06394717306027
STARLINK-1277,45369,53.0532,0.0001723,15.06398368,546.0233213693909,548.4097982060948,1 45369U 20019K   25276.63426619  .00005691  00000+0  40068-3 0  9999,2 45369  53.0532 152.2983 0001723  96.2124 263.9061 15.06398368306054
STARLINK-1281,45370,53.0536,0.0001227,15.06421901,546.2947033087075,547.99416737294,1 45370U 20019L   25276.49781190  .00013619  00000+0  93087-3 0  9991,2 45370  53.0536 152.2823 0001227  67.5817 292.5302 15.06421901306047
STARLINK-1300,45374,53.051,0.0001454,15.0638788,546.2417531603369,548.2556553231307,1 45374U 20019Q   25276.05549870  .00002662  00000+0  19761-3 0  9997,2 45374  53.0510 154.2648 0001454 104.3800 255.7351 15.06387880305977
STARLINK-1302,45375,53.0528,0.000152,15.06398885,546.1623217545566,548.2676287550339,1 45375U 20019R   25276.07023584  .00007082  00000+0  49387-3 0  9997,2 45375  53.0528 154.2022 0001520  85.0510 275.0653 15.06398885305977
STARLINK-1304,45376,53.0522,0.0001314,15.06429051,546.2125431370469,548.0325013394904,1 45376U 20019S   25275.95595315  .00012526  00000+0  85761-3 0  9995,2 45376  53.0522 154.7135 0001314 108.0426 252.0706 15.06429051305957
STARLINK-1305,45377,53.053,0.0001141,15.0639579,546.4342772692762,548.0146447546795,1 45377U 20019T   25276.04812298  .00004312  00000+0  30821-3 0  9990,2 45377  53.0530 154.2984 0001141  78.6889 281.4228 15.06395790305976
STARLINK-1319,45379,53.0531,0.0001533,15.06400288,546.1490194612797,548.2723310585152,1 45379U 20019V   25276.63786983  .00015682  00000+0  10693-2 0  9994,2 45379  53.0531 151.6520 0001533  72.9009 287.2148 15.06400288306067
STARLINK-1266,45383,53.0531,0.0001243,15.06396176,546.3624556897612,548.0841002548641,1 45383U 20019Z   25276.63971216  .00000671  00000+0  63915-4 0  9993,2 45383  53.0531 131.6462 0001243  99.9926 260.1203 15.06396176306332
STARLINK-1267,45384,53.0544,0.0001553,15.06381764,546.1919339046844,548.3429645266115,1 45384U 20019AA  25276.02794500 -.00002736  00000+0 -16493-3 0  9990,2 45384  53.0544 135.0432 0001553 109.4305 250.6852 15.06381764306234
STARLINK-1272,45386,53.053,0.0001622,15.06418892,546.0303751397296,548.2769394289526,1 45386U 20019AC  25276.63233942  .00011815  00000+0  81034-3 0  9996,2 45386  53.0530 131.6788 0001622  68.3029 291.8132 15.06418892306332
STARLINK-1274,45387,53.0341,0.000811,15.26070954,482.0033561953742,493.13953529437094,1 45387U 20019AD  25276.58680101  .00060371  00000+0  23047-2 0  9994,2 45387  53.0341 121.3339 0008110 118.4742 241.7073 15.26070954306477
STARLINK-1280,45388,53.0528,0.0001257,15.06410521,546.3088005157351,548.0498250367664,1 45388U 20019AE  25276.62312218  .00013398  00000+0  91639-3 0  9991,2 45388  53.0528 151.7199 0001257  92.1843 267.9290 15.06410521306041
STARLINK-1283,45389,53.0535,0.0001416,15.06399226,546.2333004461088,548.1945598295242,1 45389U 20019AF  25276.60285572  .00006916  00000+0  48275-3 0  9998,2 45389  53.0535 131.8073 0001416  98.1649 261.9501 15.06399226306336
STARLINK-1284,45390,53.0531,0.0001274,15.06402958,546.3202038578465,548.0847803604365,1 45390U 20019AG  25276.57705086  .00004021  00000+0  28868-3 0  9994,2 45390  53.0531 131.9277 0001274  76.9126 283.2005 15.06402958306329
STARLINK-1292,45394,53.0489,0.0004147,15.78213584,332.7179292616556,338.2862215107816,1 45394U 20019AL  25276.66670139  .00264005  00000+0  14668-2 0  9990,2 45394  53.0489  97.5897 0004147 223.1607 127.1826 15.78213584  5981
STARLINK-1297,45395,53.0529,0.0001436,15.06408031,546.1924676709205,548.1814207076904,1 45395U 20019AM  25276.61390964  .00005998  00000+0  42114-3 0  9993,2 45395  53.0529 131.7607 0001436  75.2127 284.9021 15.06408031305513
STARLINK-1307,45397,53.0524,0.0001314,15.06387633,546.3394654904023,548.1594570524239,1 45397U 20019AP  25276.00942356 -.00000361  00000+0 -53447-5 0  9990,2 45397  53.0524 134.4710 0001314  99.4392 260.6746 15.06387633306062
STARLINK-1312,45398,53.0475,0.0006489,15.77568603,332.9741747311382,341.6895101948867,1 45398U 20019AQ  25276.66670139  .00283935  00000+0  16186-2 0  9994,2 45398  53.0475  97.1502 0006489 142.8873 359.9869 15.77568603  5922
STARLINK-1255,45399,53.0522,0.0001381,15.06410366,546.22340157504,548.1361740718366,1 45399U 20019AR  25276.57427718  .00011900  00000+0  81623-3 0  9998,2 45399  53.0522 121.9399 0001381 101.3980 258.7164 15.06410366306271
STARLINK-1259,45403,53.0446,0.0002796,15.91054556,297.4636446869772,301.19768460504747,1 45403U 20019AV  25276.66670139  .00386928  67531-4  12057-2 0  9997,2 45403  53.0446  77.9896 0002796 111.4124 274.0605 15.91054556  5969
STARLINK-1260,45404,53.0535,0.0001874,15.06403412,545.9032923093691,548.4989090294985,1 45404U 20019AW  25276.54111039  .00001407  00000+0  11335-3 0  9992,2 45404  53.0535 122.0862 0001874  89.4344 270.6860 15.06403412306175
STARLINK-1263,45405,53.0537,0.0001623,15.06407698,546.0639845356818,548.311945019248,1 45405U 20019AX  25276.59271232  .00003156  00000+0  23065-3 0  9996,2 45405  53.0537 121.8552 0001623  88.4629 271.6546 15.06407698306181
STARLINK-1265,45406,53.0529,0.0001535,15.06398891,546.1519153402578,548.277998391015,1 45406U 20019AY  25276.60008734 -.00000250  00000+0  21292-5 0  9999,2 45406  53.0529 121.8234 0001535  83.0763 277.0401 15.06398891306186
STARLINK-1278,45408,53.0531,0.0001355,15.06396004,546.2854187407265,548.1621915189162,1 45408U 20019BA  25276.09603527  .00011338  00000+0  77892-3 0  9998,2 45408  53.0531 154.0853 0001355  87.7909 272.3236 15.06396004305692
STARLINK-1296,45412,53.0512,0.0001154,15.06402499,546.4047145340573,548.003083213518,1 45412U 20019BE  25276.60378390  .00000807  00000+0  73085-4 0  9997,2 45412  53.0512 121.8053 0001154  99.1960 260.9159 15.06402499306189
STARLINK-1298,45413,53.0501,0.0010052,15.45349622,423.507078669737,437.1948628861892,1 45413U 20019BF  25276.66670139  .00132719  00000+0  26954-2 0  9999,2 45413  53.0501 106.0825 0010052 147.7264   6.5436 15.45349622  5857
STARLINK-1309,45414,53.054,0.0001484,15.06397491,546.1915248054338,548.2469705397434,1 45414U 20019BG  25276.55216904 -.00000551  00000+0 -18074-4 0  9990,2 45414  53.0540 122.0379 0001484  98.4064 261.7093 15.06397491306168
STARLINK-1316,45415,53.0537,0.0001879,15.06399579,545.9115750064575,548.5141214794276,1 45415U 20019BH  25276.31257898  .00000819  00000+0  73854-4 0  9994,2 45415  53.0537 123.1109 0001879  81.4142 278.7060 15.06399579306166
STARLINK-1318,45416,53.0518,5.97e-05,15.5705116,395.79227911532234,396.60113455991905,1 45416U 20019BJ  25276.53930387  .00067955  00000+0  92164-3 0  9998,2 45416  53.0518 100.1393 0000597 277.4073  82.6870 15.57051160306496
STARLINK-1286,45417,53.0525,0.0001599,15.06399628,546.1053346482131,548.3200614816551,1 45417U 20019BK  25276.08498910  .00005228  00000+0  36963-3 0  9990,2 45417  53.0525 154.1343 0001599  70.2672 289.8489 15.06399628305962
STARLINK-1308,45419,53.0521,0.0001346,15.06402616,546.271389449932,548.1356911233761,1 45419U 20019BM  25275.88226571  .00017705  00000+0  12044-2 0  9997,2 45419  53.0521 155.0461 0001346 122.8719 237.2400 15.06402616305688
STARLINK-1329,45531,53.0531,0.0001374,15.06410999,546.2263095324497,548.1293860526239,1 45531U 20025A   25276.51438258  .00003910  00000+0  28115-3 0  9997,2 45531  53.0531  92.2055 0001374  83.6156 276.4990 15.06410999301403
STARLINK-1338,45532,53.0545,0.0001526,15.06392464,546.1778430746626,548.2914665037042,1 45532U 20025B   25275.86198277  .00002019  00000+0  15444-3 0  9999,2 45532  53.0545  95.1302 0001526  83.5221 276.5942 15.06392464301300
STARLINK-1350,45535,53.0757,0.0001186,15.31437828,470.7092582926389,472.33399731915324,1 45535U 20025E   25276.62556971  .00021737  00000+0  71593-3 0  9991,2 45535  53.0757  48.2038 0001186 123.6708 236.4406 15.31437828302056
